[{"OBJECT_NAME":"STARLINK-1308","OBJECT_ID":"2020-019BM","EPOCH":"2026-03-09T11:44:15.370656","MEAN_MOTION":15.50558102,"ECCENTRICITY":0.00022951,"INCLINATION":53.0542,"RA_OF_ASC_NODE":153.0711,"ARG_OF_PERICENTER":20.5491,"MEAN_ANOMALY":339.561,"EPHEMERIS_TYPE":0,"CLASSIFICATION_TYPE":"U","NORAD_CAT_ID":45419,"ELEMENT_SET_NO":999,"REV_AT_EPOCH":32964,"BSTAR":0.0016250615,"MEAN_MOTION_DOT":0.00095173,"MEAN_MOTION_DDOT":0},{"OBJECT_NAME":"STARLINK-1623","OBJECT_ID":"2020-057N","EPOCH":"2026-03-09T21:27:36.782208","MEAN_MOTION":15.52539688,"ECCENTRICITY":0.00071266,"INCLINATION":53.0504,"RA_OF_ASC_NODE":254.9883,"ARG_OF_PERICENTER":167.5624,"MEAN_ANOMALY":192.5562,"EPHEMERIS_TYPE":0,"CLASSIFICATION_TYPE":"U","NORAD_CAT_ID":46129,"ELEMENT_SET_NO":999,"REV_AT_EPOCH":30695,"BSTAR":0.0020334212,"MEAN_MOTION_DOT":0.00128626,"MEAN_MOTION_DDOT":0}]
